API VERSION: 1.2
API SOURCE: NASA/JPL Horizons API



*******************************************************************************
Ephemeris / API_USER Sun Mar 17 19:04:29 2024 Pasadena, USA      / Horizons
*******************************************************************************
Target body name: Earth (399)                     {source: DE441}
Center body name: Sun (10)                        {source: DE441}
Center-site name: BODY CENTER
*******************************************************************************
Start time      : A.D. 2024-Jan-01 00:00:00.0000 TDB
Stop  time      : A.D. 2024-Dec-29 00:00:00.0000 TDB
Step-size       : 1440 minutes
*******************************************************************************
Center geodetic : 0.0, 0.0, 0.0                   {E-lon(deg),Lat(deg),Alt(km)}
Center cylindric: 0.0, 0.0, 0.0                   {E-lon(deg),Dxy(km),Dz(km)}
Center radii    : 695700.0, 695700.0, 695700.0 km {Equator_a, b, pole_c}
Output units    : AU-D
Calendar mode   : Mixed Julian/Gregorian
Output type     : GEOMETRIC cartesian states
Output format   : 1 (position only)
Reference frame : Ecliptic of J2000.0
*******************************************************************************
            JDTDB,            Calendar Date (TDB),                      X,                      Y,                      Z,
**************************************************************************************************************************
$$SOE
2460655.500000000, A.D. 2024-Dec-11 00:00:00.0000,  1.863817835852847E-01,  9.668749323470510E-01, -5.636689330394554E-05,
2460656.500000000, A.D. 2024-Dec-12 00:00:00.0000,  1.691837863274954E-01,  9.699108130098529E-01, -5.704013413435854E-05,
2460657.500000000, A.D. 2024-Dec-13 00:00:00.0000,  1.519348326085870E-01,  9.726470079839575E-01, -5.761229856486381E-05,
2460658.500000000, A.D. 2024-Dec-14 00:00:00.0000,  1.346399465780083E-01,  9.750829065246301E-01, -5.805171115241217E-05,
2460659.500000000, A.D. 2024-Dec-15 00:00:00.0000,  1.173040898548107E-01,  9.772178968730145E-01, -5.833518054914339E-05,
2460660.500000000, A.D. 2024-Dec-16 00:00:00.0000,  9.993219642070128E-02,  9.790513472661938E-01, -5.844989143109095E-05,
2460661.500000000, A.D. 2024-Dec-17 00:00:00.0000,  8.252921132196873E-02,  9.805826030250794E-01, -5.839387072450040E-05,
2460662.500000000, A.D. 2024-Dec-18 00:00:00.0000,  6.510012495269603E-02,  9.818109989335971E-01, -5.817506444986656E-05,
2460663.500000000, A.D. 2024-Dec-19 00:00:00.0000,  4.764999698278826E-02,  9.827358818557320E-01, -5.780945096079799E-05,
2460664.500000000, A.D. 2024-Dec-20 00:00:00.0000,  3.018396812389909E-02,  9.833566368962731E-01, -5.731877946020876E-05,
2460665.500000000, A.D. 2024-Dec-21 00:00:00.0000,  1.270726159094784E-02,  9.836727115332666E-01, -5.672843790659884E-05,
2460666.500000000, A.D. 2024-Dec-22 00:00:00.0000, -4.774822041907895E-03,  9.836836346798126E-01, -5.606573684316252E-05,
2460667.500000000, A.D. 2024-Dec-23 00:00:00.0000, -2.225691283574333E-02,  9.833890300819066E-01, -5.535867789794798E-05,
2460668.500000000, A.D. 2024-Dec-24 00:00:00.0000, -3.973357952764652E-02,  9.827886250670858E-01, -5.463512865273374E-05,
2460669.500000000, A.D. 2024-Dec-25 00:00:00.0000, -5.719933602268687E-02,  9.818822563856633E-01, -5.392225600605758E-05,
2460670.500000000, A.D. 2024-Dec-26 00:00:00.0000, -7.464864581403330E-02,  9.806698750148520E-01, -5.324605468988095E-05,
2460671.500000000, A.D. 2024-Dec-27 00:00:00.0000, -9.207592465607610E-02,  9.791515516015907E-01, -5.263082219056571E-05,
2460672.500000000, A.D. 2024-Dec-28 00:00:00.0000, -1.094755424894619E-01,  9.773274838387026E-01, -5.209846366256333E-05,
2460673.500000000, A.D. 2024-Dec-29 00:00:00.0000, -1.268418261578698E-01,  9.751980065063296E-01, -5.166755974208042E-05,
